[{"OBJECT_NAME":"PRAETORIAN SDA_617","OBJECT_ID":"2025-203R","EPOCH":"2026-03-09T13:00:56.284704","MEAN_MOTION":13.83191555,"ECCENTRICITY":0.00087532,"INCLINATION":81.3005,"RA_OF_ASC_NODE":103.0292,"ARG_OF_PERICENTER":101.6074,"MEAN_ANOMALY":258.6065,"EPHEMERIS_TYPE":0,"CLASSIFICATION_TYPE":"U","NORAD_CAT_ID":65580,"ELEMENT_SET_NO":999,"REV_AT_EPOCH":2491,"BSTAR":5.9995099e-5,"MEAN_MOTION_DOT":7.8e-7,"MEAN_MOTION_DDOT":0},{"OBJECT_NAME":"SL-14 R\/B","OBJECT_ID":"1986-039B","EPOCH":"2026-03-09T21:46:23.980800","MEAN_MOTION":13.84855163,"ECCENTRICITY":0.00136974,"INCLINATION":82.5419,"RA_OF_ASC_NODE":9.7097,"ARG_OF_PERICENTER":139.7148,"MEAN_ANOMALY":220.503,"EPHEMERIS_TYPE":0,"CLASSIFICATION_TYPE":"U","NORAD_CAT_ID":16736,"ELEMENT_SET_NO":999,"REV_AT_EPOCH":1062,"BSTAR":3.3675293e-5,"MEAN_MOTION_DOT":5.3e-7,"MEAN_MOTION_DDOT":0}]
